{"type": "FeatureCollection", "features": [ {"type": "Feature", "properties": {"norad_id": 43565, "name": "GSAT0222 (GALILEO 26)", "group": "gnss", "lat": 52.865060733579696, "lon": 108.62932170330599, "alt_km": 23232.335658679996, "timestamp": "2025-12-09T09:46:47.889699+00:00", "meta": {"OBJECT_NAME": "GSAT0222 (GALILEO 26)", "OBJECT_ID": "2018-060B", "EPOCH": "2025-12-08T15:27:21.492000", "MEAN_MOTION": 1.70475431, "ECCENTRICITY": 0.00061741, "INCLINATION": 57.2322, "RA_OF_ASC_NODE": 346.9312, "ARG_OF_PERICENTER": 262.3002, "MEAN_ANOMALY": 97.6467, "EPHEMERIS_TYPE": 0, "CLASSIFICATION_TYPE": "U", "NORAD_CAT_ID": 43565, "ELEMENT_SET_NO": 999, "REV_AT_EPOCH": 4596, "BSTAR": 0, "MEAN_MOTION_DOT": -8.6e-07, "MEAN_MOTION_DDOT": 0}, "tle": {"line1": "1 43565U 18060B   25342.64399875 -.00000086  00000+0  00000+0 0  9998", "line2": "2 43565  57.2322 346.9312 0006174 262.3002  97.6467  1.70475431 45962"}}, "geometry": {"type": "Point", "coordinates": [108.62932170330599, 52.865060733579696]}}, {"type": "Feature", "properties": {"norad_id": 43566, "name": "GSAT0219 (GALILEO 23)", "group": "gnss", "lat": -22.567414662712547, "lon": -28.617662896109184, "alt_km": 23213.342981536476, "timestamp": "2025-12-09T09:46:47.889717+00:00", "meta": {"OBJECT_NAME": "GSAT0219 (GALILEO 23)", "OBJECT_ID": "2018-060C", "EPOCH": "2025-12-07T16:36:27.181728", "MEAN_MOTION": 1.7047564, "ECCENTRICITY": 0.00057893, "INCLINATION": 57.2316, "RA_OF_ASC_NODE": 346.9585, "ARG_OF_PERICENTER": 285.9629, "MEAN_ANOMALY": 73.992, "EPHEMERIS_TYPE": 0, "CLASSIFICATION_TYPE": "U", "NORAD_CAT_ID": 43566, "ELEMENT_SET_NO": 999, "REV_AT_EPOCH": 4592, "BSTAR": 0, "MEAN_MOTION_DOT": -8.4e-07, "MEAN_MOTION_DDOT": 0}, "tle": {"line1": "1 43566U 18060C   25341.69198127 -.00000084  00000+0  00000+0 0  9998", "line2": "2 43566  57.2316 346.9585 0005789 285.9629  73.9920  1.70475640 45924"}}, "geometry": {"type": "Point", "coordinates": [-28.617662896109184, -22.567414662712547]}}, {"type": "Feature", "properties": {"norad_id": 43567, "name": "GSAT0220 (GALILEO 24)", "group": "gnss", "lat": -14.370278269304615, "lon": 176.40938754753765, "alt_km": 23222.777974102253, "timestamp": "2025-12-09T09:46:47.889738+00:00", "meta": {"OBJECT_NAME": "GSAT0220 (GALILEO 24)", "OBJECT_ID": "2018-060D", "EPOCH": "2025-12-07T07:49:54.342624", "MEAN_MOTION": 1.70475454, "ECCENTRICITY": 0.00061757, "INCLINATION": 57.2312, "RA_OF_ASC_NODE": 346.9681, "ARG_OF_PERICENTER": 282.9528, "MEAN_ANOMALY": 76.9979, "EPHEMERIS_TYPE": 0, "CLASSIFICATION_TYPE": "U", "NORAD_CAT_ID": 43567, "ELEMENT_SET_NO": 999, "REV_AT_EPOCH": 4590, "BSTAR": 0, "MEAN_MOTION_DOT": -8.3e-07, "MEAN_MOTION_DDOT": 0}, "tle": {"line1": "1 43567U 18060D   25341.32632341 -.00000083  00000+0  00000+0 0  9999", "line2": "2 43567  57.2312 346.9681 0006175 282.9528  76.9979  1.70475454 45901"}}, "geometry": {"type": "Point", "coordinates": [176.40938754753765, -14.370278269304615]}}, {"type": "Feature", "properties": {"norad_id": 43581, "name": "BEIDOU-3 M5 (C23)", "group": "gnss", "lat": -51.957839845708044, "lon": 76.63032061275966, "alt_km": 21534.615861359394, "timestamp": "2025-12-09T09:46:47.889757+00:00", "meta": {"OBJECT_NAME": "BEIDOU-3 M5 (C23)", "OBJECT_ID": "2018-062A", "EPOCH": "2025-12-07T09:56:06.099936", "MEAN_MOTION": 1.86228656, "ECCENTRICITY": 0.00021227, "INCLINATION": 54.0892, "RA_OF_ASC_NODE": 188.8244, "ARG_OF_PERICENTER": 353.0314, "MEAN_ANOMALY": 7.0363, "EPHEMERIS_TYPE": 0, "CLASSIFICATION_TYPE": "U", "NORAD_CAT_ID": 43581, "ELEMENT_SET_NO": 999, "REV_AT_EPOCH": 5006, "BSTAR": 0, "MEAN_MOTION_DOT": 5.9e-07, "MEAN_MOTION_DDOT": 0}, "tle": {"line1": "1 43581U 18062A   25341.41395949  .00000059  00000+0  00000+0 0  9999", "line2": "2 43581  54.0892 188.8244 0002122 353.0314   7.0363  1.86228656 50066"}}, "geometry": {"type": "Point", "coordinates": [76.63032061275966, -51.957839845708044]}}, {"type": "Feature", "properties": {"norad_id": 43582, "name": "BEIDOU-3 M6 (C24)", "group": "gnss", "lat": -9.40966952305301, "lon": -178.14660476382377, "alt_km": 21518.102991449727, "timestamp": "2025-12-09T09:46:47.889775+00:00", "meta": {"OBJECT_NAME": "BEIDOU-3 M6 (C24)", "OBJECT_ID": "2018-062B", "EPOCH": "2025-12-07T19:32:10.570272", "MEAN_MOTION": 1.86229692, "ECCENTRICITY": 0.00077761, "INCLINATION": 54.0886, "RA_OF_ASC_NODE": 188.7999, "ARG_OF_PERICENTER": 46.2812, "MEAN_ANOMALY": 313.8511, "EPHEMERIS_TYPE": 0, "CLASSIFICATION_TYPE": "U", "NORAD_CAT_ID": 43582, "ELEMENT_SET_NO": 999, "REV_AT_EPOCH": 5007, "BSTAR": 0, "MEAN_MOTION_DOT": 5.5e-07, "MEAN_MOTION_DDOT": 0}, "tle": {"line1": "1 43582U 18062B   25341.81401123  .00000055  00000+0  00000+0 0  9992", "line2": "2 43582  54.0886 188.7999 0007776  46.2812 313.8511  1.86229692 50075"}}, "geometry": {"type": "Point", "coordinates": [-178.14660476382377, -9.40966952305301]}}, {"type": "Feature", "properties": {"norad_id": 43602, "name": "BEIDOU-3 M12 (C26)", "group": "gnss", "lat": 24.005085089484954, "lon": -153.75296367798455, "alt_km": 21500.311951420317, "timestamp": "2025-12-09T09:46:47.889795+00:00", "meta": {"OBJECT_NAME": "BEIDOU-3 M12 (C26)", "OBJECT_ID": "2018-067A", "EPOCH": "2025-12-07T18:02:34.116000", "MEAN_MOTION": 1.86227677, "ECCENTRICITY": 0.00091651, "INCLINATION": 54.1832, "RA_OF_ASC_NODE": 187.5325, "ARG_OF_PERICENTER": 40.8071, "MEAN_ANOMALY": 319.3279, "EPHEMERIS_TYPE": 0, "CLASSIFICATION_TYPE": "U", "NORAD_CAT_ID": 43602, "ELEMENT_SET_NO": 999, "REV_AT_EPOCH": 4955, "BSTAR": 0, "MEAN_MOTION_DOT": 5.6e-07, "MEAN_MOTION_DDOT": 0}, "tle": {"line1": "1 43602U 18067A   25341.75178375  .00000056  00000+0  00000+0 0  9994", "line2": "2 43602  54.1832 187.5325 0009165  40.8071 319.3279  1.86227677 49555"}}, "geometry": {"type": "Point", "coordinates": [-153.75296367798455, 24.005085089484954]}}, {"type": "Feature", "properties": {"norad_id": 43603, "name": "BEIDOU-3 M11 (C25)", "group": "gnss", "lat": -44.65558639987164, "lon": 141.90351874065914, "alt_km": 21535.417074090634, "timestamp": "2025-12-09T09:46:47.889815+00:00", "meta": {"OBJECT_NAME": "BEIDOU-3 M11 (C25)", "OBJECT_ID": "2018-067B", "EPOCH": "2025-12-07T08:23:01.607424", "MEAN_MOTION": 1.86227152, "ECCENTRICITY": 0.0005581, "INCLINATION": 54.1802, "RA_OF_ASC_NODE": 187.5102, "ARG_OF_PERICENTER": 36.6822, "MEAN_ANOMALY": 323.425, "EPHEMERIS_TYPE": 0, "CLASSIFICATION_TYPE": "U", "NORAD_CAT_ID": 43603, "ELEMENT_SET_NO": 999, "REV_AT_EPOCH": 4957, "BSTAR": 0, "MEAN_MOTION_DOT": 6e-07, "MEAN_MOTION_DDOT": 0}, "tle": {"line1": "1 43603U 18067B   25341.34932416  .00000060  00000+0  00000+0 0  9999", "line2": "2 43603  54.1802 187.5102 0005581  36.6822 323.4250  1.86227152 49576"}}, "geometry": {"type": "Point", "coordinates": [141.90351874065914, -44.65558639987164]}}, {"type": "Feature", "properties": {"norad_id": 43622, "name": "BEIDOU-3 M13 (C32)", "group": "gnss", "lat": -25.416430801370907, "lon": 50.5915248041512, "alt_km": 21517.245532252993, "timestamp": "2025-12-09T09:46:47.889833+00:00", "meta": {"OBJECT_NAME": "BEIDOU-3 M13 (C32)", "OBJECT_ID": "2018-072A", "EPOCH": "2025-12-08T09:06:52.153056", "MEAN_MOTION": 1.86230751, "ECCENTRICITY": 0.00059246, "INCLINATION": 56.4552, "RA_OF_ASC_NODE": 68.9648, "ARG_OF_PERICENTER": 298.4192, "MEAN_ANOMALY": 61.5427, "EPHEMERIS_TYPE": 0, "CLASSIFICATION_TYPE": "U", "NORAD_CAT_ID": 43622, "ELEMENT_SET_NO": 999, "REV_AT_EPOCH": 4910, "BSTAR": 0, "MEAN_MOTION_DOT": -4.5e-07, "MEAN_MOTION_DDOT": 0}, "tle": {"line1": "1 43622U 18072A   25342.37977029 -.00000045  00000+0  00000+0 0  9993", "line2": "2 43622  56.4552  68.9648 0005924 298.4192  61.5427  1.86230751 49104"}}, "geometry": {"type": "Point", "coordinates": [50.5915248041512, -25.416430801370907]}}, {"type": "Feature", "properties": {"norad_id": 43623, "name": "BEIDOU-3 M14 (C33)", "group": "gnss", "lat": 45.7700874647741, "lon": 111.81593529827487, "alt_km": 21521.57936287131, "timestamp": "2025-12-09T09:46:47.889854+00:00", "meta": {"OBJECT_NAME": "BEIDOU-3 M14 (C33)", "OBJECT_ID": "2018-072B", "EPOCH": "2025-12-08T18:46:22.315872", "MEAN_MOTION": 1.86230614, "ECCENTRICITY": 0.0003183, "INCLINATION": 56.4575, "RA_OF_ASC_NODE": 68.9457, "ARG_OF_PERICENTER": 336.0436, "MEAN_ANOMALY": 23.9639, "EPHEMERIS_TYPE": 0, "CLASSIFICATION_TYPE": "U", "NORAD_CAT_ID": 43623, "ELEMENT_SET_NO": 999, "REV_AT_EPOCH": 4910, "BSTAR": 0, "MEAN_MOTION_DOT": -4.6e-07, "MEAN_MOTION_DDOT": 0}, "tle": {"line1": "1 43623U 18072B   25342.78220273 -.00000046  00000+0  00000+0 0  9992", "line2": "2 43623  56.4575  68.9457 0003183 336.0436  23.9639  1.86230614 49108"}}, "geometry": {"type": "Point", "coordinates": [111.81593529827487, 45.7700874647741]}}, {"type": "Feature", "properties": {"norad_id": 43647, "name": "BEIDOU-3 M16 (C35)", "group": "gnss", "lat": -36.17708583398086, "lon": -85.12394401603672, "alt_km": 21524.139035973207, "timestamp": "2025-12-09T09:46:47.889872+00:00", "meta": {"OBJECT_NAME": "BEIDOU-3 M16 (C35)", "OBJECT_ID": "2018-078A", "EPOCH": "2025-12-08T09:40:29.399520", "MEAN_MOTION": 1.86232196, "ECCENTRICITY": 0.00070845, "INCLINATION": 54.2661, "RA_OF_ASC_NODE": 306.6728, "ARG_OF_PERICENTER": 18.9222, "MEAN_ANOMALY": 341.0919, "EPHEMERIS_TYPE": 0, "CLASSIFICATION_TYPE": "U", "NORAD_CAT_ID": 43647, "ELEMENT_SET_NO": 999, "REV_AT_EPOCH": 4860, "BSTAR": 0, "MEAN_MOTION_DOT": -7.3e-07, "MEAN_MOTION_DDOT": 0}, "tle": {"line1": "1 43647U 18078A   25342.40311805 -.00000073  00000+0  00000+0 0  9995", "line2": "2 43647  54.2661 306.6728 0007084  18.9222 341.0919  1.86232196 48608"}}, "geometry": {"type": "Point", "coordinates": [-85.12394401603672, -36.17708583398086]}}]}